213P-C/Van Ness,e,10.3575,4.6719,312.7822,3.357093,0.1602356,0.41045745,112.3846,10/15.0/2025,2000,g 17.5,4.0
# From MPC 92986
214P/LINEAR,e,15.1948,348.2117,190.1187,3.616138,0.1433298,0.48642344,159.7328,10/15.0/2025,2000,g 13.0,4.0
# From MPC184418
215P/NEAT,e,10.5761,56.6799,262.1941,4.336462,0.1091442,0.16486179,236.0123,10/15.0/2025,2000,g 11.0,4.0
# From MPEC 2024-N80
216P/LINEAR,e,9.0618,359.7726,151.7815,3.860474,0.1299401,0.44909057,84.0635,10/15.0/2025,2000,g 13.0,4.0
# From MPEC 2025-T80
217P/LINEAR,e,12.8661,125.3691,247.0443,3.946179,0.1257300,0.68922507,17.9848,10/15.0/2025,2000,g 12.0,4.0
# From MPEC 2022-K19
218P/LINEAR,e,2.7272,174.6577,61.4639,3.059832,0.1841441,0.63084739,334.2386,10/15.0/2025,2000,g 16.0,4.0
# From MPC182889
219P/LINEAR,e,11.4780,230.6958,108.2788,3.660733,0.1407187,0.35691105,85.3886,10/15.0/2025,2000,g 11.0,4.0
# From MPEC 2024-A43
220P/McNaught,e,8.1206,150.0872,180.5760,3.120550,0.1787958,0.50036323,316.7061,10/15.0/2025,2000,g 15.0,4.0
# From MPEC 2022-UY9
221P/LINEAR,e,10.5258,224.2463,44.2528,3.380739,0.1585574,0.52396498,217.5099,10/15.0/2025,2000,g 14.5,4.0
# From MPC 92277
222P/LINEAR,e,5.0983,6.7461,346.2699,2.895761,0.2000139,0.71485949,104.0329,10/15.0/2025,2000,g 20.0,4.0
# From MPEC 2023-A50
223P/Skiff,e,27.0059,346.6963,37.9906,4.158193,0.1162377,0.41616902,284.6967,10/15.0/2025,2000,g 12.0,4.0
# From MPEC 2024-L77
224P/LINEAR-NEAT,e,13.2997,40.0401,16.8267,3.447518,0.1539729,0.40544842,171.0447,10/15.0/2025,2000,g 15.5,4.0
# From MPEC 2024-F91
225P/LINEAR,e,21.3588,14.2132,3.9064,3.647566,0.1414814,0.63805323,113.0781,10/15.0/2025,2000,g 18.0,4.0
# From MPEC 2024-MB8
226P/Pigott-LINEAR-Kowalski,e,44.0440,54.0156,341.0382,3.765506,0.1348867,0.52876393,88.7545,10/15.0/2025,2000,g 12.5,4.0
# From MPEC 2024-R10
227P/Catalina-LINEAR,e,7.5068,36.7953,105.6033,3.437812,0.1546254,0.52776686,90.5518,10/15.0/2025,2000,g 16.5,2.0
# From MPEC 2022-HC2
228P/LINEAR,e,7.9166,30.9514,114.8424,4.161426,0.1161023,0.17757816,237.3815,10/15.0/2025,2000,g 14.5,2.0
# From MPC186636
229P/Gibbs,e,26.0967,157.8679,224.2673,3.925458,0.1267268,0.37826924,28.2703,10/15.0/2025,2000,g 13.0,4.0
# From MPC185664
230P/LINEAR,e,15.4729,106.9240,313.5899,3.455242,0.1534569,0.54536338,200.2998,10/15.0/2025,2000,g 13.0,4.0
# From MPEC 2023-SQ0
231P/LINEAR-NEAT,e,12.2739,132.7613,43.5632,4.064580,0.1202764,0.23994439,280.8692,10/15.0/2025,2000,g 14.5,2.0
# From MPC112394
232P/Hill,e,14.6428,56.0022,53.3341,4.469343,0.1043130,0.33620394,248.2150,10/15.0/2025,2000,g 11.5,4.0
# From MPEC 2021-N06
233P/La Sagra,e,11.2887,74.8982,27.0151,3.027263,0.1871237,0.41309269,344.0734,10/15.0/2025,2000,g 15.0,4.0
# From MPC185664
234P/LINEAR,e,11.5332,179.5600,357.4589,3.798632,0.1331261,0.25739496,47.4285,10/15.0/2025,2000,g 12.0,4.0
# From MPC186636
235P/LINEAR,e,9.8132,200.1703,352.1910,3.445704,0.1540945,0.42597009,349.4197,10/15.0/2025,2000,g 12.0,4.0
# From MPEC 2024-P23
236P/LINEAR,e,16.3508,245.5637,119.4590,3.728222,0.1369151,0.50963214,34.6504,10/15.0/2025,2000,g 14.0,4.0
# From MPC182890
237P/LINEAR,e,14.0031,245.3585,25.5698,3.518702,0.1493243,0.43198258,132.1733,10/15.0/2025,2000,g 14.5,2.0
# From MPEC 2024-L77
238P/Read,e,1.2636,51.6508,324.2570,3.167908,0.1748016,0.25046194,214.7089,10/15.0/2025,2000,g 14.5,4.0
# From MPEC 2021-F20
239P/LINEAR,e,11.3059,255.9294,220.4027,4.463212,0.1045280,0.63158520,257.9126,10/15.0/2025,2000,g 17.5,2.0
# From MPEC 2025-T80
240P/NEAT,e,23.5370,74.9114,352.0767,3.860998,0.1299136,0.45048897,351.4327,10/15.0/2025,2000,g 11.0,4.0
# From MPEC 2025-TC4
240P-B/NEAT,e,23.5495,74.8026,352.7424,3.822197,0.1318968,0.44667398,351.1113,10/15.0/2025,2000,g 15.5,4.0
# From MPEC 2022-J42
241P/LINEAR,e,21.0953,305.4074,111.6361,4.928420,0.0900829,0.60999393,138.8957,10/15.0/2025,2000,g 13.5,4.0
# From MPEC 2025-ST8
242P/Spahr,e,32.4260,180.2013,245.0390,5.538465,0.0756171,0.28285722,22.3428,10/15.0/2025,2000,g  8.0,4.0
# From MPEC 2025-ST8
243P/NEAT,e,7.6445,87.5764,283.7845,3.826135,0.1316933,0.36019065,342.4080,10/15.0/2025,2000,g 12.5,4.0
# From MPEC 2024-L77
244P/Scotti,e,2.2573,354.0035,93.5729,4.905579,0.0907128,0.19977108,96.1143,10/15.0/2025,2000,g  9.0,4.0
# From MPEC 2022-CN4
245P/WISE,e,21.1710,316.8827,316.4918,4.053443,0.1207725,0.45587504,339.8118,10/15.0/2025,2000,g 14.0,4.0
# From MPEC 2024-YC7
246P/NEAT,e,17.3293,74.1026,185.1649,4.318989,0.1098072,0.21427651,198.1484,10/15.0/2025,2000,g 10.5,4.0
# From MPEC 2021-F20
247P/LINEAR,e,13.6583,53.9802,47.5249,3.963200,0.1249209,0.62560887,313.0350,10/15.0/2025,2000,g 16.5,2.0
# From MPEC 2025-SH3
248P/Gibbs,e,6.3514,207.7943,209.9972,5.985450,0.0673068,0.63950595,2.0228,10/15.0/2025,2000,g 14.0,4.0
# From MPEC 2022-YN2
249P/LINEAR,e,8.3767,239.0072,65.8113,2.767923,0.2140293,0.81943276,54.6348,10/15.0/2025,2000,g 15.5,4.0
# From MPC182890
250P/Larson,e,13.1518,73.3003,45.7019,3.775759,0.1343376,0.39818013,20.3245,10/15.0/2025,2000,g 14.5,4.0
# From MPEC 2024-TD8
251P/LINEAR,e,23.3893,219.3368,31.1810,3.511437,0.1497879,0.50416627,91.3582,10/15.0/2025,2000,g 16.5,2.0
# From MPEC 2021-S45
252P/LINEAR,e,10.4205,190.9071,343.3722,3.051390,0.1849088,0.67111673,288.1281,10/15.0/2025,2000,g 17.5,4.0
# From MPC182890
253P/PANSTARRS,e,4.9483,146.8041,230.8193,3.464771,0.1528242,0.41551957,54.8624,10/15.0/2025,2000,g 14.5,4.0
# From MPC184419
254P/McNaught,e,32.5367,129.1764,219.7087,4.620504,0.0992362,0.31833806,182.9112,10/15.0/2025,2000,g 11.0,4.0
# From NK 2214
255P/Levy,e,13.4056,275.6368,186.0506,2.942136,0.1953035,0.71209251,221.2277,10/15.0/2025,2000,g 20.0,4.0
# From MPEC 2024-L77
256P/LINEAR,e,27.6229,81.3197,124.0480,4.634325,0.0987926,0.41812954,93.6575,10/15.0/2025,2000,g 14.0,2.0
# From MPEC 2023-A50
257P/Catalina,e,20.2142,207.7312,117.7057,3.768464,0.1347279,0.42869929,251.0495,10/15.0/2025,2000,g 11.5,4.0
# From MPEC 2021-U31
258P/PANSTARRS,e,6.7512,126.2368,25.6337,4.388087,0.1072238,0.20973102,208.4150,10/15.0/2025,2000,g 13.0,4.0
# From MPC106349
259P/Garradd,e,15.8978,51.3741,257.4703,2.729690,0.2185415,0.33872780,294.1906,10/15.0/2025,2000,g 15.5,4.0
# From MPEC 2022-O01
260P/McNaught,e,15.0425,349.2974,18.4956,3.623586,0.1428881,0.60872704,317.9890,10/15.0/2025,2000,g 13.5,4.0
# From MPEC 2025-ST8
261P/Larson,e,6.0734,291.0506,67.3666,3.489066,0.1512308,0.42271147,348.8977,10/15.0/2025,2000,g 14.0,4.0
# From MPC 82322
262P/McNaught-Russell,e,29.2380,217.8844,171.0692,6.869390,0.0547428,0.81584356,256.6764,10/15.0/2025,2000,g 13.5,4.0
# From MPEC 2024-L77
263P/Gibbs,e,11.5269,105.5044,35.0248,3.040661,0.1858883,0.59416405,183.6447,10/15.0/2025,2000,g 18.0,4.0
# From MPC114608
264P/Larsen,e,25.1111,219.0504,341.1730,4.030175,0.1218199,0.34011583,297.0613,10/15.0/2025,2000,g 13.0,4.0
# From MPC 79870
265P/LINEAR,e,14.3374,342.9122,33.5727,4.261305,0.1120444,0.64653735,191.5481,10/15.0/2025,2000,g 14.5,4.0
# From MPEC 2025-T80
266P/Christensen,e,3.4283,4.9827,97.7996,3.528163,0.1487240,0.34066451,297.7072,10/15.0/2025,2000,g 12.5,4.0
# From MPC114608
267P/LONEOS,e,6.1387,228.4940,114.2012,3.206500,0.1716553,0.61527039,92.3426,10/15.0/2025,2000,g 19.5,4.0
# From MPC185665
268P/Bernardi,e,15.6613,125.6306,0.0316,4.591746,0.1001699,0.47451961,30.0993,10/15.0/2025,2000,g 14.0,4.0
# From MPEC 2023-J29
269P/Jedicke,e,7.0833,241.7571,225.7612,7.057393,0.0525700,0.43365041,211.4101,10/15.0/2025,2000,g 10.0,4.0
# From MPC 88332
270P/Gehrels,e,2.9245,223.0156,209.9605,6.648075,0.0574990,0.47017930,258.4025,10/15.0/2025,2000,g  8.0,4.0
# From MPC 92277
271P/van Houten-Lemmon,e,6.8658,9.2646,36.6440,7.032587,0.0528483,0.39572772,235.7819,10/15.0/2025,2000,g 11.0,4.0
# From MPEC 2023-D41
272P/NEAT,e,18.0834,109.4391,27.8949,4.461996,0.1045708,0.45560928,123.9468,10/15.0/2025,2000,g 16.0,2.0
# From MPC 82723
273P/Pons-Gambart,e,136.3173,320.3780,20.1032,31.89963,0.0054705,0.97454415,0.0000,12/21.5762/2012,2000,g 11.5,4.0
# From MPEC 2024-GJ3
274P/Tombaugh-Tenagra,e,15.8200,81.3169,38.5057,4.378560,0.1075739,0.44031371,138.1899,10/15.0/2025,2000,g 13.0,4.0
# From MPC 81862
275P/Hermann,e,21.2533,348.6813,173.8863,5.798541,0.0705872,0.71386870,333.3229,10/15.0/2025,2000,g 15.0,4.0
# From MPEC 2025-T80
276P/Vorobjov,e,14.7490,211.1261,199.5711,5.379171,0.0790007,0.27524844,24.2743,10/15.0/2025,2000,g 11.5,4.0
# From MPEC 2021-F20
277P/LINEAR,e,16.7934,276.2597,152.4466,3.853529,0.1302915,0.50635464,227.7529,10/15.0/2025,2000,g 14.0,4.0
# From MPEC 2021-S45
278P/McNaught,e,6.6227,11.4174,242.1766,3.626257,0.1427303,0.45402379,260.1363,10/15.0/2025,2000,g 14.0,4.0
# From MPEC 2024-A43
279P/LaSagra,e,5.0540,346.0947,5.5988,3.567231,0.1462875,0.39956407,133.1726,10/15.0/2025,2000,g 14.0,4.0
# From MPEC 2024-RQ6
280P/Larsen,e,11.7756,131.3788,104.6088,4.523591,0.1024422,0.41689533,82.2241,10/15.0/2025,2000,g 12.5,4.0
# From MPEC 2023-D41
281P/MOSS,e,4.7176,87.1666,27.0804,4.887822,0.0912076,0.17394236,89.6805,10/15.0/2025,2000,g 11.0,4.0
# From MPEC 2022-K19
283P/Spacewatch,e,14.4703,161.1259,22.1447,4.131104,0.1173829,0.48520812,175.7536,10/15.0/2025,2000,g 16.0,2.0
# From MPEC 2024-D33
284P/McNaught,e,11.8521,144.2613,202.4521,3.679330,0.1396532,0.37419126,208.8032,10/15.0/2025,2000,g 13.0,4.0
# From MPEC 2024-L77
285P/LINEAR,e,25.0308,185.5164,178.3796,4.505153,0.1030718,0.61796003,103.8305,10/15.0/2025,2000,g 15.0,4.0
# From MPEC 2024-LE0
286P/Christensen,e,17.2497,283.5840,23.6989,4.066565,0.1201884,0.43398270,150.2787,10/15.0/2025,2000,g 14.0,4.0
# From MPEC 2025-A40
287P/Christensen,e,16.3906,138.4687,191.1882,4.198304,0.1145759,0.27246012,94.5500,10/15.0/2025,2000,g 13.5,4.0
# From MPC133426
288P/,e,3.2382,83.1068,280.2684,3.050863,0.1849567,0.19949528,244.9503,10/15.0/2025,2000,g 16.0,2.0
# From MPEC 2024-O39
289P/Blanpain,e,5.9002,68.8905,9.8767,3.043554,0.1856233,0.68643131,34.0963,10/15.0/2025,2000,g 19.0,4.0
# From MPC 95214
290P/Jager,e,20.0436,302.6695,181.8759,6.212709,0.0636477,0.62833219,272.4100,10/15.0/2025,2000,g 10.5,4.0
# From MPEC 2024-YC7
